ONEWEB-0645             
1 55809U 23029P   25356.23505773  .00000043  00000+0  75222-4 0  9994
2 55809  87.9190 340.1957 0002141  72.3340 287.8027 13.19724703135560
ONEWEB-0646             
1 55810U 23029Q   25355.94916479  .00000008  00000+0 -12402-4 0  9995
2 55810  87.9205 340.2448 0001763  76.4506 283.6823 13.19725477135515
ONEWEB-0648             
1 55811U 23029R   25356.21465397  .00000324  00000+0  84065-3 0  9998
2 55811  87.9003 324.9628 0002365  59.7305 300.4058 13.14501127136148
ONEWEB-0649             
1 55812U 23029S   25356.20188188  .00000077  00000+0  15947-3 0  9996
2 55812  87.9203 340.1912 0001962  72.7342 287.4006 13.19726075135585
ONEWEB-0650             
1 55813U 23029T   25355.96969525  .00000012  00000+0 -27977-5 0  9999
2 55813  87.9198 340.2427 0001845  69.9552 290.1779 13.19724762135525
ONEWEB-0652             
1 55814U 23029U   25356.19561315  .00000102  00000+0  24040-3 0  9996
2 55814  87.8997 324.9866 0001817  88.0087 272.1251 13.14505087136115
ONEWEB-0653             
1 55815U 23029V   25356.17975468 -.00000479  00000+0 -13253-2 0  9995
2 55815  87.8993 324.9794 0001949  86.1581 273.9771 13.14502224136145
ONEWEB-0654             
1 55816U 23029W   25356.17499621 -.00000374  00000+0 -10429-2 0  9994
2 55816  87.8990 324.9795 0001865  94.1259 266.0084 13.14502502136163
